format  = 'OEF1.1'       ! file format
rectype = 'ML'           ! record type (1L/ML)
refsys  = ECLM J2000     ! default reference system
END_OF_HEADER
1566
! Equinoctial elements: a, e*sin(LP), e*cos(LP), tan(i/2)*sin(LN), tan(i/2)*cos(LN), mean long.
 EQU   1.07784388438610E+00  0.720584811294348 -0.405544942033308  0.202307315609156  0.006522509764471 181.7721310395840
 MJD     50268.24064972 TDT
 MAG  16.900  0.150
! RMS   4.78036911E-10  2.09506208E-07  1.13059487E-07  2.47931819E-07  2.61292399E-08  2.17306723E-05
 COV   2.285192887194030E-19  1.136554763946685E-19 -1.038108441642461E-18
 COV  -6.364186151697801E-18  3.215346472269696E-19 -3.672031053341084E-15
 COV   4.389285123396078E-14  2.317700408731079E-14  3.291354948232774E-15
 COV   5.145267778526711E-16 -4.247412554967954E-12  1.278244768029082E-14
 COV   3.833645178512938E-15  3.970509538006655E-16 -2.230468307941100E-12
 COV   6.147018667024285E-14  5.638843364335337E-15 -2.980278956176791E-13
 COV   6.827371780720264E-16 -6.210553448173523E-14  4.722221181161837E-10
 NOR   1.106768761725188E+20  6.167659829954360E+17  4.072141635330986E+16
 NOR   9.896851258476440E+15 -2.162801957349741E+16  6.603889425920370E+15
 NOR   4.262571254436482E+15 -9.793764615461274E+14  1.282445889090087E+14
 NOR  -4.878735811608198E+14  3.852664765838815E+13  2.261771314948672E+15
 NOR  -1.543604557011846E+14  8.793847082192484E+14  2.208991404465972E+12
 NOR   8.034295552932900E+13 -6.324532787270430E+14  4.688867850721409E+11
 NOR   6.560218056057582E+15  6.089870987546426E+10  4.107365059319262E+11
